[{"OBJECT_NAME":"CENTISPACE-1 S9","OBJECT_ID":"2025-007D","EPOCH":"2026-03-09T22:07:56.074656","MEAN_MOTION":13.83191394,"ECCENTRICITY":0.00092392,"INCLINATION":54.9818,"RA_OF_ASC_NODE":279.4927,"ARG_OF_PERICENTER":251.979,"MEAN_ANOMALY":108.0161,"EPHEMERIS_TYPE":0,"CLASSIFICATION_TYPE":"U","NORAD_CAT_ID":62578,"ELEMENT_SET_NO":999,"REV_AT_EPOCH":6100,"BSTAR":0.00010536643,"MEAN_MOTION_DOT":-2.5e-7,"MEAN_MOTION_DDOT":0},{"OBJECT_NAME":"COSMOS 970 DEB","OBJECT_ID":"1977-121AC","EPOCH":"2026-03-09T21:03:50.732064","MEAN_MOTION":13.69497368,"ECCENTRICITY":0.01335591,"INCLINATION":65.8463,"RA_OF_ASC_NODE":323.3789,"ARG_OF_PERICENTER":190.527,"MEAN_ANOMALY":169.2989,"EPHEMERIS_TYPE":0,"CLASSIFICATION_TYPE":"U","NORAD_CAT_ID":10881,"ELEMENT_SET_NO":999,"REV_AT_EPOCH":40370,"BSTAR":0.00030700293,"MEAN_MOTION_DOT":2.06e-6,"MEAN_MOTION_DDOT":0}]
